<?xml version="1.0" encoding="UTF-8"?>
<kml xmlns="http://www.opengis.net/kml/2.2" xmlns:gx="http://www.google.com/kml/ext/2.2" xmlns:kml="http://www.opengis.net/kml/2.2" xmlns:atom="http://www.w3.org/2005/Atom">
<Document>
	<name>ruta_altimetrica_usme.kml</name>
	<StyleMap id="m_ylw-pushpin">
		<Pair>
			<key>normal</key>
			<styleUrl>#s_ylw-pushpin</styleUrl>
		</Pair>
		<Pair>
			<key>highlight</key>
			<styleUrl>#s_ylw-pushpin_hl</styleUrl>
		</Pair>
	</StyleMap>
	<Style id="s_ylw-pushpin">
		<IconStyle>
			<scale>1.1</scale>
			<Icon>
				<href>http://maps.google.com/mapfiles/kml/pushpin/ylw-pushpin.png</href>
			</Icon>
			<hotSpot x="20" y="2" xunits="pixels" yunits="pixels"/>
		</IconStyle>
	</Style>
	<Style id="s_ylw-pushpin_hl">
		<IconStyle>
			<scale>1.3</scale>
			<Icon>
				<href>http://maps.google.com/mapfiles/kml/pushpin/ylw-pushpin.png</href>
			</Icon>
			<hotSpot x="20" y="2" xunits="pixels" yunits="pixels"/>
		</IconStyle>
	</Style>
	<Placemark>
		<name>ruta_altimetrica_usme</name>
		<styleUrl>#m_ylw-pushpin</styleUrl>
		<LineString>
			<tessellate>1</tessellate>
			<coordinates>
				-74.11983556514036,4.539247446446853,0 -74.10778775430582,4.532845578073128,0 -74.09785878536057,4.520501509194005,0 -74.08705187665822,4.51171284617705,0 -74.07897033501708,4.512265497821696,0 -74.06814311093066,4.507450201266582,0 -74.06930493052002,4.499440707023344,0 -74.07758168044309,4.501500911091514,0 -74.0859678785216,4.503588778348713,0 -74.09820529002523,4.510055097143542,0 -74.10536950360805,4.512791360797666,0 -74.11603461868037,4.512231877772207,0 -74.11632166258129,4.503388375531735,0 -74.10301427196731,4.494777266487118,0 -74.09260766462364,4.490611488172417,0 -74.08131222471874,4.483365153129612,0 -74.085685773698,4.476940279186257,0 -74.0933419583522,4.478342806319471,0 -74.10744213499476,4.483377682542735,0 -74.11682166416153,4.479415154159457,0 -74.10887928948208,4.474775367013771,0 -74.09553496768633,4.468780891563092,0 -74.10286887431408,4.462765834970154,0 -74.11066537300385,4.464093923678105,0 -74.11742391478698,4.46547309550885,0 -74.12460219354507,4.464716078192975,0 -74.12832480350122,4.459254195057807,0 -74.11659800364693,4.458603653764967,0 -74.11763594241134,4.450659328198855,0 -74.12437586231673,4.448804439639464,0 -74.13119316269116,4.448521358966392,0 -74.13676327034997,4.440353928634095,0 -74.12765371991057,4.440778114922689,0 -74.11786531656877,4.437594992613264,0 -74.12228046854395,4.432703564523767,0 -74.13393051115322,4.431575988303036,0 -74.13602539243209,4.422098455975003,0 -74.12171735664573,4.4178098709855,0 -74.12647266879385,4.412402629493646,0 -74.13661010200111,4.413286665102409,0 -74.137588091298,4.405532667862968,0 -74.1181913263944,4.399826215058044,0 -74.12067741468945,4.393135796058161,0 -74.1298682141136,4.391920543110204,0 -74.13683370223765,4.386349258540482,0 -74.14728746078892,4.383483750900822,0 -74.15937873190464,4.379952307733149,0 -74.17052149979232,4.377998673796944,0 -74.17982852913946,4.375676206055627,0 -74.18817913566413,4.376510077782457,0 -74.19738307346165,4.37625361985722,0 -74.17558624579307,4.367388146231738,0 -74.16396036592775,4.366934606372157,0 -74.15037732658332,4.37117402167031,0 -74.13288834849327,4.373735869865002,0 -74.11978689903479,4.379329399153194,0 -74.10785997771266,4.373060235147165,0 -74.20821387528726,4.373780212296994,0 -74.20152501219938,4.3702001870113,0 -74.18665697475292,4.368939088693542,0 -74.16925003851713,4.352922865982451,0 -74.1575670108558,4.357558780595593,0 -74.13855608663931,4.360894642254976,0 -74.12870043561749,4.364782080489841,0 -74.11673873926721,4.364469716811331,0 -74.12090527236435,4.351035210318717,0 -74.1401981454121,4.350958556891436,0 -74.15577576716011,4.347874322275868,0 -74.16670477125328,4.345746994324936,0 -74.18119327504148,4.351225504693874,0 -74.19152688398081,4.353726300291386,0 -74.20897534775159,4.357657760843998,0 -74.21081336305889,4.346723476759662,0 -74.20067025959679,4.345218821783812,0 -74.17839363210339,4.339559973940658,0 -74.16609421378038,4.338923957741397,0 -74.14907690716255,4.334977198385715,0 -74.13554866478357,4.338421160035717,0 -74.12040507639009,4.338692579569404,0 -74.11292443088746,4.33530081147103,0 -74.11989773766001,4.325100382613785,0 -74.1393058604481,4.325584852152072,0 -74.15814873669423,4.326216411198352,0 -74.17029056553945,4.328190102589766,0 -74.17750972300206,4.326866648828177,0 -74.1918395956794,4.326194148582458,0 -74.20258524440223,4.327943533794903,0 -74.20978228574241,4.320639284662471,0 -74.20900771072574,4.313787425495626,0 -74.21200466247147,4.30307220396555,0 -74.21229029084124,4.286961815331727,0 -74.21225072854428,4.279258547286336,0 -74.20597209824352,4.286868392500828,0 -74.20123425131342,4.293779060059463,0 -74.20123641936964,4.30152805281042,0 -74.19816105345252,4.310694567540096,0 -74.19106916767186,4.317924433942522,0 -74.1806051733225,4.317725168391092,0 -74.18665028351907,4.305830542089841,0 -74.18856967315989,4.296919008280189,0 -74.18482589371233,4.290267460508343,0 -74.17233686925606,4.290578227856579,0 -74.17264762646997,4.299046407743069,0 -74.17219120032055,4.307206534828215,0 -74.16752331611721,4.314023762563049,0 -74.15674028682346,4.316322013451358,0 -74.16009018778426,4.304027491486942,0 -74.16386471182653,4.294100407525517,0 -74.14903538879065,4.30407643634017,0 -74.14374511972231,4.311806436654656,0 -74.14098415373707,4.318751286768599,0 -74.123385337527,4.320000136263446,0 -74.13075644029276,4.312073546070867,0 
			</coordinates>
		</LineString>
		<atom:link rel="app" href="https://www.google.com/earth/about/versions/#earth-pro" title="Google Earth Pro 7.3.7.1155"></atom:link>
	</Placemark>
</Document>
</kml>
